     2.10           G: GLONASS NAV DATA                     RINEX VERSION / TYPE
teqc  2015Jun23                         20210707 01:25:51UTCPGM / RUN BY / DATE
Linux 2.4.21-27.ELsmp|Opteron|gcc -static|Linux x86_64|=+   COMMENT
  2021     6    13    3.213062882423D-08                    CORR TO SYSTEM TIME
                                                            END OF HEADER
24 21  6 14  3 45  0.0 4.644785076380D-05 1.818989403546D-12 1.281000000000D+04
   -7.257128417969D+03-1.681203842163D+00-3.725290298462D-09 0.000000000000D+00
    8.560298339844D+03-2.647458076477D+00 9.313225746155D-10 2.000000000000D+00
    2.291693896484D+04 4.555034637451D-01-0.000000000000D+00 0.000000000000D+00
15 21  6 14  3 45  0.0 1.032706350088D-04 0.000000000000D+00 1.314000000000D+04
    4.930323242188D+03-1.215174674988D+00-2.793967723846D-09 0.000000000000D+00
    1.316797802734D+04 2.646013259888D+00-0.000000000000D+00 0.000000000000D+00
    2.130322802734D+04-1.356001853943D+00-9.313225746155D-10 0.000000000000D+00
18 21  6 14  4 15  0.0 7.997453212738D-05 9.094947017729D-13 1.440000000000D+04
    1.473225048828D+04-2.531166076660D-01-9.313225746155D-10 0.000000000000D+00
    2.023871484375D+04-6.454792022705D-01-9.313225746155D-10-3.000000000000D+00
    4.765827148438D+03 3.533473968506D+00-0.000000000000D+00 0.000000000000D+00
 2 21  6 14  4 15  0.0 4.822844639421D-04 9.094947017729D-13 1.440000000000D+04
   -2.227157275391D+04-1.172747612000D+00-1.862645149231D-09 0.000000000000D+00
    8.698948242188D+03 3.972263336182D-01 9.313225746155D-10-4.000000000000D+00
   -8.921916503906D+03 3.292601585388D+00 2.793967723846D-09 0.000000000000D+00
 3 21  6 14  4 15  0.0 3.766454756260D-05 0.000000000000D+00 1.440000000000D+04
   -7.636382812500D+03-2.844319343567D+00 0.000000000000D+00 0.000000000000D+00
    1.185887011719D+04 6.457138061523D-01-9.313225746155D-10 5.000000000000D+00
   -2.121866845703D+04 1.376842498779D+00 2.793967723846D-09 0.000000000000D+00
13 21  6 14  4 15  0.0-5.622860044241D-05-0.000000000000D+00 1.440000000000D+04
   -1.261707519531D+04 7.218837738037D-01-9.313225746155D-10 0.000000000000D+00
    1.662108251953D+04-1.877167701721D+00-0.000000000000D+00-2.000000000000D+00
   -1.468028808594D+04-2.748540878296D+00 2.793967723846D-09 0.000000000000D+00
14 21  6 14  4 15  0.0 6.531644612551D-05 0.000000000000D+00 1.440000000000D+04
   -6.530573730469D+03 1.056671142578D-02-2.793967723846D-09 0.000000000000D+00
    2.447817333984D+04 4.195280075073D-01 0.000000000000D+00-7.000000000000D+00
    2.901395019531D+03-3.533509254456D+00 1.862645149231D-09 0.000000000000D+00
15 21  6 14  4 15  0.0 1.032706350088D-04 0.000000000000D+00 1.440000000000D+04
    3.223277343750D+03-6.838817596436D-01-2.793967723846D-09 0.000000000000D+00
    1.773091748047D+04 2.374963760376D+00 0.000000000000D+00 0.000000000000D+00
    1.807199023438D+04-2.211060523987D+00-0.000000000000D+00 0.000000000000D+00
17 21  6 14  4 15  0.0 4.324913024902D-04 2.728484105319D-12 1.443000000000D+04
    3.322132812500D+03-1.609941482544D+00-2.793967723846D-09 0.000000000000D+00
    1.681163476562D+04-2.033978462219D+00 0.000000000000D+00 4.000000000000D+00
    1.891135693359D+04 2.087521553040D+00-0.000000000000D+00 0.000000000000D+00
19 21  6 14  4 15  0.0-1.476667821407D-04-9.094947017729D-13 1.587000000000D+04
    1.807920898438D+04 1.154076576233D+00 9.313225746155D-10 0.000000000000D+00
    1.405598144531D+04 1.046210289001D+00-1.862645149231D-09 3.000000000000D+00
   -1.124606054688D+04 3.164347648621D+00-0.000000000000D+00 0.000000000000D+00
18 21  6 14  4 45  0.0 7.997639477253D-05 9.094947017729D-13 1.620000000000D+04
    1.363984472656D+04-9.763498306274D-01-1.862645149231D-09 0.000000000000D+00
    1.859069628906D+04-1.144528388977D+00-0.000000000000D+00-3.000000000000D+00
    1.085887207031D+04 3.192519187927D+00-0.000000000000D+00 0.000000000000D+00
 2 21  6 14  4 45  0.0 4.822872579098D-04 9.094947017729D-13 1.620000000000D+04
   -2.360203417969D+04-3.031387329102D-01-1.862645149231D-09 0.000000000000D+00
    9.353013183594D+03 2.877759933472D-01 1.862645149231D-09-4.000000000000D+00
   -2.727356933594D+03 3.545578002930D+00 2.793967723846D-09 0.000000000000D+00
 3 21  6 14  4 45  0.0 3.766547888517D-05 0.000000000000D+00 1.620000000000D+04
   -1.229784228516D+04-2.297623634338D+00-0.000000000000D+00 0.000000000000D+00
    1.328090185547D+04 9.024305343628D-01 0.000000000000D+00 5.000000000000D+00
   -1.794985351562D+04 2.231333732605D+00 2.793967723846D-09 0.000000000000D+00
13 21  6 14  4 45  0.0-5.622953176498D-05-0.000000000000D+00 1.620000000000D+04
   -1.144795361328D+04 5.413389205933D-01-0.000000000000D+00 0.000000000000D+00
    1.261600976562D+04-2.542456626892D+00-0.000000000000D+00-2.000000000000D+00
   -1.899672509766D+04-2.016436576843D+00 2.793967723846D-09 0.000000000000D+00
14 21  6 14  4 45  0.0 6.531737744808D-05 0.000000000000D+00 1.620000000000D+04
   -6.282778320312D+03 2.253971099854D-01-1.862645149231D-09 0.000000000000D+00
    2.446286425781D+04-4.459495544434D-01 0.000000000000D+00-7.000000000000D+00
   -3.488939453125D+03-3.520693778992D+00 2.793967723846D-09 0.000000000000D+00
15 21  6 14  4 45  0.0 1.032706350088D-04-0.000000000000D+00 1.620000000000D+04
    2.428056152344D+03-2.192392349243D-01-2.793967723846D-09 0.000000000000D+00
    2.155163574219D+04 1.828361511230D+00 0.000000000000D+00 0.000000000000D+00
    1.344583105469D+04-2.895854949951D+00 0.000000000000D+00 0.000000000000D+00
17 21  6 14  4 45  0.0 4.324968904257D-04 2.728484105319D-12 1.620000000000D+04
   -1.301889648438D+02-2.206565856934D+00-2.793967723846D-09 0.000000000000D+00
    1.310906640625D+04-2.033076286316D+00 9.313225746155D-10 4.000000000000D+00
    2.189035107422D+04 1.200935363770D+00-0.000000000000D+00 0.000000000000D+00
19 21  6 14  4 45  0.0-1.476695761085D-04-9.094947017729D-13 1.620000000000D+04
    1.977704638672D+04 6.901636123657D-01 0.000000000000D+00 0.000000000000D+00
    1.525695507812D+04 3.017940521240D-01-1.862645149231D-09 3.000000000000D+00
   -5.189204101562D+03 3.521821975708D+00-0.000000000000D+00 0.000000000000D+00
18 21  6 14  5 15  0.0 7.997825741768D-05 9.094947017729D-13 1.800000000000D+04
    1.119505615234D+04-1.736457824707D+00-2.793967723846D-09 0.000000000000D+00
    1.627894482422D+04-1.377588272095D+00 0.000000000000D+00-3.000000000000D+00
    1.611022021484D+04 2.604417800903D+00-0.000000000000D+00 0.000000000000D+00
 2 21  6 14  5 15  0.0 4.822900518775D-04 9.094947017729D-13 1.800000000000D+04
   -2.338933593750D+04 5.226888656616D-01-1.862645149231D-09 0.000000000000D+00
    9.589664550781D+03-6.231021881104D-02 2.793967723846D-09-4.000000000000D+00
    3.677614746094D+03 3.525012016296D+00 1.862645149231D-09 0.000000000000D+00
 3 21  6 14  5 15  0.0 3.766641020775D-05 0.000000000000D+00 1.800000000000D+04
   -1.580090771484D+04-1.573572158813D+00-9.313225746155D-10 0.000000000000D+00
    1.497376855469D+04 9.373779296875D-01 9.313225746155D-10 5.000000000000D+00
   -1.329051074219D+04 2.911887168884D+00 2.793967723846D-09 0.000000000000D+00
13 21  6 14  5 15  0.0-5.623046308756D-05-0.000000000000D+00 1.800000000000D+04
   -1.077620947266D+04 1.819391250610D-01 9.313225746155D-10 0.000000000000D+00
    7.604152832031D+03-2.982348442078D+00-0.000000000000D+00-2.000000000000D+00
   -2.184595410156D+04-1.128890037537D+00 2.793967723846D-09 0.000000000000D+00
14 21  6 14  5 15  0.0 6.531737744808D-05 0.000000000000D+00 1.800000000000D+04
   -5.865175781250D+03 1.983623504639D-01-1.862645149231D-09 0.000000000000D+00
    2.287390625000D+04-1.309461593628D+00 0.000000000000D+00-7.000000000000D+00
   -9.609075195312D+03-3.235216140747D+00 2.793967723846D-09 0.000000000000D+00
15 21  6 14  5 15  0.0 1.032706350088D-04-0.000000000000D+00 1.800000000000D+04
    2.337857421875D+03 8.617591857910D-02-2.793967723846D-09 0.000000000000D+00
    2.418457714844D+04 1.068825721741D+00 9.313225746155D-10 0.000000000000D+00
    7.781237792969D+03-3.357350349426D+00 9.313225746155D-10 0.000000000000D+00
19 21  6 14  5 15  0.0-1.476714387536D-04-9.094947017729D-13 1.800000000000D+04
    2.043041259766D+04 5.268096923828D-03-9.313225746155D-10 0.000000000000D+00
    1.522290722656D+04-3.093957901001D-01-9.313225746155D-10 3.000000000000D+00
    1.268759765625D+03 3.607108116150D+00-0.000000000000D+00 0.000000000000D+00
 4 21  6 14  5 15  0.0 9.123515337706D-05 1.818989403546D-12 1.824000000000D+04
    4.813354492188D+02-2.772167205811D+00 0.000000000000D+00 0.000000000000D+00
    1.163089111328D+04 1.416675567627D+00-9.313225746155D-10 6.000000000000D+00
   -2.266585498047D+04 6.667547225952D-01 1.862645149231D-09 0.000000000000D+00
19 21  6 14  5 45  0.0-1.476742327213D-04-9.094947017729D-13 1.980000000000D+04
    1.971557177734D+04-8.128433227539D-01-1.862645149231D-09 0.000000000000D+00
    1.427416845703D+04-7.035350799561D-01-0.000000000000D+00 3.000000000000D+00
    7.628608886719D+03 3.413495063782D+00-0.000000000000D+00 0.000000000000D+00
 2 21  6 14  5 45  0.0 4.822937771678D-04 1.818989403546D-12 1.980000000000D+04
   -2.181133642578D+04 1.197781562805D+00-1.862645149231D-09 0.000000000000D+00
    9.011617187500D+03-6.062946319580D-01 3.725290298462D-09-4.000000000000D+00
    9.799512207031D+03 3.233185768127D+00 1.862645149231D-09 0.000000000000D+00
 3 21  6 14  5 45  0.0 3.766734153032D-05 0.000000000000D+00 1.980000000000D+04
   -1.792067724609D+04-7.797222137451D-01-9.313225746155D-10 0.000000000000D+00
    1.650079541016D+04 7.160730361938D-01 1.862645149231D-09 5.000000000000D+00
   -7.603069824219D+03 3.366355895996D+00 2.793967723846D-09 0.000000000000D+00
 4 21  6 14  5 45  0.0 9.123794734478D-05 1.818989403546D-12 1.980000000000D+04
   -4.117255859375D+03-2.301262855530D+00-0.000000000000D+00 0.000000000000D+00
    1.442229150391D+04 1.648490905762D+00-0.000000000000D+00 6.000000000000D+00
   -2.060242138672D+04 1.610969543457D+00 2.793967723846D-09 0.000000000000D+00
